{
    "links": {
        "self": "http://www.neowsapp.com/rest/v1/neo/3694051?api_key=iIulBulltgU6a56xZRHN4H3l9WmuAYTsLGpBGhQ2"
    },
    "id": "3694051",
    "neo_reference_id": "3694051",
    "name": "(2014 UX33)",
    "designation": "2014 UX33",
    "nasa_jpl_url": "http://ssd.jpl.nasa.gov/sbdb.cgi?sstr=3694051",
    "absolute_magnitude_h": 24.8,
    "estimated_diameter": {
        "kilometers": {
            "estimated_diameter_min": 0.0291443905,
            "estimated_diameter_max": 0.0651688382
        },
        "meters": {
            "estimated_diameter_min": 29.1443904535,
            "estimated_diameter_max": 65.1688382168
        },
        "miles": {
            "estimated_diameter_min": 0.018109479,
            "estimated_diameter_max": 0.0404940262
        },
        "feet": {
            "estimated_diameter_min": 95.6180819754,
            "estimated_diameter_max": 213.8085311752
        }
    },
    "is_potentially_hazardous_asteroid": false,
    "close_approach_data": [
        {
            "close_approach_date": "2014-10-16",
            "close_approach_date_full": "2014-Oct-16 13:12",
            "epoch_date_close_approach": 1413465120000,
            "relative_velocity": {
                "kilometers_per_second": "6.1871089041",
                "kilometers_per_hour": "22273.5920546275",
                "miles_per_hour": "13839.943907499"
            },
            "miss_distance": {
                "astronomical": "0.0784813745",
                "lunar": "30.5292546805",
                "kilometers": "11740646.459872315",
                "miles": "7295299.422635347"
            },
            "orbiting_body": "Earth"
        }
    ],
    "orbital_data": {
        "orbit_id": "4",
        "orbit_determination_date": "2017-04-06 08:38:00",
        "first_observation_date": "2014-10-23",
        "last_observation_date": "2014-10-26",
        "data_arc_in_days": 3,
        "observations_used": 16,
        "orbit_uncertainty": "9",
        "minimum_orbit_intersection": ".0695536",
        "jupiter_tisserand_invariant": "3.842",
        "epoch_osculation": "2456954.5",
        "eccentricity": ".4354305219925744",
        "semi_major_axis": "1.879646543467459",
        "inclination": "7.271346191578209",
        "ascending_node_longitude": "8.926836742098137",
        "orbital_period": "941.2667388537639",
        "perihelion_distance": "1.061191067883885",
        "perihelion_argument": "17.71066604251867",
        "aphelion_distance": "2.698102019051033",
        "perihelion_time": "2456952.119593319005",
        "mean_anomaly": ".9104182372382077",
        "mean_motion": ".3824633179308909",
        "equinox": "J2000",
        "orbit_class": {
            "orbit_class_type": "AMO",
            "orbit_class_description": "Near-Earth asteroid orbits similar to that of 1221 Amor",
            "orbit_class_range": "1.017 AU < q (perihelion) < 1.3 AU"
        }
    },
    "is_sentry_object": false
}